NORAD_CAT_ID,OBJECT_NAME,OBJECT_TYPE,EPOCH,MEAN_MOTION,ECCENTRICITY,INCLINATION,RA_OF_ASC_NODE,ARG_OF_PERICENTER,MEAN_ANOMALY,BSTAR,MEAN_MOTION_DOT,MEAN_MOTION_DDOT,TLE_LINE0,TLE_LINE1,TLE_LINE2,SEMIMAJOR_AXIS,PERIOD,APOGEE,PERIGEE,DECAYED
51886.0,STARLINK-3565,PAYLOAD,2022-10-08 11:25:02,15.08835946,0.0001698,53.2173,202.5786,60.339,299.7771,-0.00014868,-2.653e-05,0.0,0 STARLINK-3565,1 51886U 22022AL  22281.47571850 -.00002653  00000-0 -14868-3 0  9996,2 51886  53.2173 202.5786 0001698  60.3390 299.7771 15.08835946 34813,6917.893,95.438,540.932,538.5830000000002,0.0
51886.0,STARLINK-3565,PAYLOAD,2022-10-09 01:43:30,15.08840204,0.0001425,53.2176,199.9022,63.6644,296.4494,0.00060552,9.362e-05,0.0,0 STARLINK-3565,1 51886U 22022AL  22282.07187922  .00009362  00000-0  60552-3 0  9999,2 51886  53.2176 199.9022 0001425  63.6644 296.4494 15.08840204 34903,6917.88,95.438,540.731,538.759,0.0
51886.0,STARLINK-3565,PAYLOAD,2022-10-10 04:45:03,15.0884489,0.0001426999999999,53.217,194.8469,67.6716,292.4427,0.00043195,6.594e-05,0.0,0 STARLINK-3565,1 51886U 22022AL  22283.19796221  .00006594  00000-0  43195-3 0  9999,2 51886  53.2170 194.8469 0001427  67.6716 292.4427 15.08844890 35078,6917.865,95.437,540.7180000000002,538.743,0.0
51886.0,STARLINK-3565,PAYLOAD,2022-10-10 11:06:36,15.08837218,0.0001460999999999,53.2172,193.6576,68.405,291.7098,0.00015794,2.226e-05,0.0,0 STARLINK-3565,1 51886U 22022AL  22283.46292472  .00002226  00000-0  15794-3 0  9990,2 51886  53.2172 193.6576 0001461  68.4050 291.7098 15.08837218 35111,6917.889,95.438,540.765,538.743,0.0
51886.0,STARLINK-3565,PAYLOAD,2022-10-11 01:25:04,15.08853328,0.0001258,53.2174,190.9835,73.8497,286.2634,0.00045381,6.944e-05,0.0,0 STARLINK-3565,1 51886U 22022AL  22284.05907878  .00006944  00000-0  45381-3 0  9995,2 51886  53.2174 190.9835 0001258  73.8497 286.2634 15.08853328 35205,6917.84,95.437,540.575,538.8340000000002,0.0
51886.0,STARLINK-3565,PAYLOAD,2022-10-11 17:18:56,15.08829281,0.0001409999999999,53.2177,188.0078,68.7534,291.3609,-0.00016077,-2.845e-05,0.0,0 STARLINK-3565,1 51886U 22022AL  22284.72148868 -.00002845  00000-0 -16077-3 0  9993,2 51886  53.2177 188.0078 0001410  68.7534 291.3609 15.08829281 35301,6917.913000000001,95.438,540.754,538.803,0.0
51886.0,STARLINK-3565,PAYLOAD,2022-10-12 06:02:02,15.08833273,0.0001774,53.2175,185.6294,66.6256,293.4922,3.478e-05,2.65e-06,0.0,0 STARLINK-3565,1 51886U 22022AL  22285.25141239  .00000265  00000-0  34780-4 0  9991,2 51886  53.2175 185.6294 0001774  66.6256 293.4922 15.08833273 35388,6917.901,95.438,540.993,538.539,0.0
51886.0,STARLINK-3565,PAYLOAD,2022-10-12 17:09:43,15.08841501,0.0001578,53.217,183.5478,68.3421,291.7739,0.00018653,2.682e-05,0.0,0 STARLINK-3565,1 51886U 22022AL  22285.71509224  .00002682  00000-0  18653-3 0  9999,2 51886  53.2170 183.5478 0001578  68.3421 291.7739 15.08841501 35457,6917.876,95.437,540.832,538.649,0.0
51886.0,STARLINK-3565,PAYLOAD,2022-10-12 20:20:30,15.08840062,0.0001401,53.2168,182.9528,68.9999,291.1143,0.00011116,1.482e-05,0.0,0 STARLINK-3565,1 51886U 22022AL  22285.84757243  .00001482  00000-0  11116-3 0  9993,2 51886  53.2168 182.9528 0001401  68.9999 291.1143 15.08840062 35470,6917.88,95.438,540.714,538.776,0.0
51886.0,STARLINK-3565,PAYLOAD,2022-10-13 10:38:58,15.08844183,0.0001467,53.2161,180.2774,64.3931,295.7212,0.00046539,7.127e-05,0.0,0 STARLINK-3565,1 51886U 22022AL  22286.44373427  .00007127  00000-0  46539-3 0  9997,2 51886  53.2161 180.2774 0001467  64.3931 295.7212 15.08844183 35560,6917.868,95.437,540.747,538.7180000000002,0.0
51886.0,STARLINK-3565,PAYLOAD,2022-10-13 20:11:17,15.08835947,0.0001569,53.2159,178.4921,71.4823,288.634,0.00014372,2e-05,0.0,0 STARLINK-3565,1 51886U 22022AL  22286.84117920  .00002000  00000-0  14372-3 0  9990,2 51886  53.2159 178.4921 0001569  71.4823 288.6340 15.08835947 35620,6917.893,95.438,540.8430000000002,538.672,0.0
51886.0,STARLINK-3565,PAYLOAD,2022-10-14 04:08:13,15.08842148,0.0001651,53.2167,177.0064,67.6241,292.4926,0.00027526,4.096e-05,0.0,0 STARLINK-3565,1 51886U 22022AL  22287.17237765  .00004096  00000-0  27526-3 0  9999,2 51886  53.2167 177.0064 0001651  67.6241 292.4926 15.08842148 35674,6917.874,95.437,540.881,538.597,0.0
51886.0,STARLINK-3565,PAYLOAD,2022-10-14 20:02:04,15.08848562,0.0001587,53.2167,174.0329,68.8267,291.2895,0.00022364,3.274e-05,0.0,0 STARLINK-3565,1 51886U 22022AL  22287.83477302  .00003274  00000-0  22364-3 0  9997,2 51886  53.2167 174.0329 0001587  68.8267 291.2895 15.08848562 35773,6917.854,95.437,540.817,538.621,0.0
51886.0,STARLINK-3565,PAYLOAD,2022-10-15 03:59:00,15.08845126,0.0001468,53.2166,172.5461,64.3668,295.7476,0.00013474,1.857e-05,0.0,0 STARLINK-3565,1 51886U 22022AL  22288.16597309  .00001857  00000-0  13474-3 0  9991,2 51886  53.2166 172.5461 0001468  64.3668 295.7476 15.08845126 35829,6917.865,95.437,540.745,538.714,0.0
51886.0,STARLINK-3565,PAYLOAD,2022-10-15 18:17:27,15.08863401,0.0001428,53.2165,169.87,38.1429,321.9664,-0.0001496,-2.67e-05,0.0,0 STARLINK-3565,1 51886U 22022AL  22288.76212175 -.00002670  00000-0 -14960-3 0  9999,2 51886  53.2165 169.8700 0001428  38.1429 321.9664 15.08863401 35910,6917.809,95.436,540.6619999999998,538.686,0.0
51886.0,STARLINK-3565,PAYLOAD,2022-10-16 03:49:47,15.08830372,0.0001545,53.2171,168.0862,63.2387,296.8763,-2.4644e-05,-6.8e-06,0.0,0 STARLINK-3565,1 51886U 22022AL  22289.15958059 -.00000680  00000-0 -24644-4 0  9991,2 51886  53.2171 168.0862 0001545  63.2387 296.8763 15.08830372 35976,6917.91,95.438,540.844,538.706,0.0
51886.0,STARLINK-3565,PAYLOAD,2022-10-16 08:35:57,15.08828349,0.0001658,53.2174,167.1941,65.9821,294.1345,-8.421399999999999e-05,-1.628e-05,0.0,0 STARLINK-3565,1 51886U 22022AL  22289.35830419 -.00001628  00000-0 -84214-4 0  9994,2 51886  53.2174 167.1941 0001658  65.9821 294.1345 15.08828349 36007,6917.916,95.438,540.928,538.634,0.0
51886.0,STARLINK-3565,PAYLOAD,2022-10-16 19:43:39,15.08832308,0.0001408,53.2173,165.1121,66.1479,293.9661,1.7891e-05,-3e-08,0.0,0 STARLINK-3565,1 51886U 22022AL  22289.82198002 -.00000003  00000-0  17891-4 0  9993,2 51886  53.2173 165.1121 0001408  66.1479 293.9661 15.08832308 36074,6917.904,95.438,540.743,538.795,0.0
51886.0,STARLINK-3565,PAYLOAD,2022-10-17 08:26:44,15.08831117,0.0001379,53.2174,162.7337,64.4119,295.7015,-1.6754000000000006e-05,-5.54e-06,0.0,0 STARLINK-3565,1 51886U 22022AL  22290.35190557 -.00000554  00000-0 -16754-4 0  9999,2 51886  53.2174 162.7337 0001379  64.4119 295.7015 15.08831117 36155,6917.908,95.438,540.727,538.819,0.0
51886.0,STARLINK-3565,PAYLOAD,2022-10-17 19:34:26,15.08830387,0.0001494,53.2174,160.6521,71.9325,288.1829,0.00015909,2.244e-05,0.0,0 STARLINK-3565,1 51886U 22022AL  22290.81558233  .00002244  00000-0  15909-3 0  9995,2 51886  53.2174 160.6521 0001494  71.9325 288.1829 15.08830387 36222,6917.91,95.438,540.808,538.741,0.0
51886.0,STARLINK-3565,PAYLOAD,2022-10-18 00:20:35,15.0883633,0.0001494,53.2173,159.7601,72.314,287.8015,0.00018106,2.594e-05,0.0,0 STARLINK-3565,1 51886U 22022AL  22291.01429985  .00002594  00000-0  18106-3 0  9999,2 51886  53.2173 159.7601 0001494  72.3140 287.8015 15.08836330 36259,6917.892,95.438,540.79,538.7230000000002,0.0
51886.0,STARLINK-3565,PAYLOAD,2022-10-18 08:17:31,15.08836281,0.0001539,53.2173,158.2732,65.4706,294.6446,0.00013081,1.794e-05,0.0,0 STARLINK-3565,1 51886U 22022AL  22291.34550228  .00001794  00000-0  13081-3 0  9998,2 51886  53.2173 158.2732 0001539  65.4706 294.6446 15.08836281 36304,6917.892,95.438,540.821,538.692,0.0
51886.0,STARLINK-3565,PAYLOAD,2022-10-19 08:08:18,15.08841317,0.0001505,53.2174,153.8129,64.3523,295.7624,0.00024764,3.656e-05,0.0,0 STARLINK-3565,1 51886U 22022AL  22292.33910308  .00003656  00000-0  24764-3 0  9996,2 51886  53.2174 153.8129 0001505  64.3523 295.7624 15.08841317 36456,6917.876,95.437,540.783,538.7,0.0
51886.0,STARLINK-3565,PAYLOAD,2022-10-19 17:40:37,15.0883625,0.0001621999999999,53.217,152.0295,66.859,293.2573,6.2222e-05,7.02e-06,0.0,0 STARLINK-3565,1 51886U 22022AL  22292.73654716  .00000702  00000-0  62222-4 0  9999,2 51886  53.2170 152.0295 0001622  66.8590 293.2573 15.08836250 36511,6917.892,95.438,540.879,538.635,0.0
51886.0,STARLINK-3565,PAYLOAD,2022-10-20 07:59:04,15.08861705,0.0001659,53.2176,149.3525,53.3303,306.7842,-0.00017654,-3.098e-05,0.0,0 STARLINK-3565,1 51886U 22022AL  22293.33269621 -.00003098  00000-0 -17654-3 0  9994,2 51886  53.2176 149.3525 0001659  53.3303 306.7842 15.08861705 36607,6917.814,95.436,540.827,538.531,0.0
51886.0,STARLINK-3565,PAYLOAD,2022-10-20 20:42:10,15.08842603,0.0001514,53.2178,146.9727,66.7168,293.3984,8.203799999999999e-05,1.018e-05,0.0,0 STARLINK-3565,1 51886U 22022AL  22293.86262231  .00001018  00000-0  82038-4 0  9999,2 51886  53.2178 146.9727 0001514  66.7168 293.3984 15.08842603 36685,6917.871999999999,95.437,540.785,538.69,0.0
51886.0,STARLINK-3565,PAYLOAD,2022-10-21 07:49:51,15.08889382,0.0001363,53.2181,144.8904,55.6512,304.4609,-0.00070137,-0.00011448,0.0,0 STARLINK-3565,1 51886U 22022AL  22294.32628888 -.00011448  00000-0 -70137-3 0  9991,2 51886  53.2181 144.8904 0001363  55.6512 304.4609 15.08889382 36756,6917.729,95.434,540.5369999999998,538.6519999999998,0.0
51886.0,STARLINK-3565,PAYLOAD,2022-10-21 20:32:57,15.08840789,0.0001379,53.2175,142.5117,68.8884,291.2256,9.0553e-05,1.154e-05,0.0,0 STARLINK-3565,1 51886U 22022AL  22294.85622167  .00001154  00000-0  90553-4 0  9999,2 51886  53.2175 142.5117 0001379  68.8884 291.2256 15.08840789 36833,6917.878000000002,95.438,540.697,538.789,0.0
51886.0,STARLINK-3565,PAYLOAD,2022-10-21 23:43:43,15.08846454,0.0001483,53.2174,141.9178,65.3641,294.7506,8.5856e-05,1.079e-05,0.0,0 STARLINK-3565,1 51886U 22022AL  22294.98869808  .00001079  00000-0  85856-4 0  9994,2 51886  53.2174 141.9178 0001483  65.3641 294.7506 15.08846454 36854,6917.861,95.437,540.752,538.7,0.0
